0 TAURUS DEB
1 25161U 98007E   13281.86056341  .00000245  00000-0  15937-3 0  3530
2 25161 107.9534 039.2567 0059842 114.8967 000.5653 14.24153628813201
0 TAURUS DEB
1 25161U 98007E   13284.10210336  .00000287  00000-0  17746-3 0  3543
2 25161 107.9538 043.7812 0059796 110.9021 332.9769 14.24156472813529
0 TAURUS DEB
1 25161U 98007E   13286.13702500  .00000244  00000-0  15903-3 0  3554
2 25161 107.9543 047.8887 0059748 107.2713 326.0735 14.24158173813815
0 TAURUS DEB
1 25161U 98007E   13288.44869679  .00000437  00000-0  24114-3 0  3560
2 25161 107.9548 052.5550 0059677 103.1535 298.0846 14.24160710814146
0 TAURUS DEB
1 25161U 98007E   13291.19279617  .00000343  00000-0  20103-3 0  3574
2 25161 107.9550 058.0945 0059654 098.2631 327.1976 14.24163674814537
0 TAURUS DEB
1 25161U 98007E   13293.43575203  .00000402  00000-0  22601-3 0  3585
2 25161 107.9550 062.6223 0059615 094.2449 306.9673 14.24165894814857
0 TAURUS DEB
1 25161U 98007E   13295.47275468  .00000376  00000-0  21492-3 0  3599
2 25161 107.9549 066.7345 0059600 090.5995 310.8134 14.24168112815149
